NORAD_CAT_ID,OBJECT_NAME,OBJECT_TYPE,EPOCH,MEAN_MOTION,ECCENTRICITY,INCLINATION,RA_OF_ASC_NODE,ARG_OF_PERICENTER,MEAN_ANOMALY,BSTAR,MEAN_MOTION_DOT,MEAN_MOTION_DDOT,TLE_LINE0,TLE_LINE1,TLE_LINE2,SEMIMAJOR_AXIS,PERIOD,APOGEE,PERIGEE,DECAYED
53920.0,STARLINK-5025,PAYLOAD,2024-05-21 01:22:12,15.08837098,0.0001331,53.2169,26.4084,92.9253,267.1892,0.00027945,4.162e-05,0.0,0 STARLINK-5025,1 53920U 22119AL  24142.05709294  .00004162  00000-0  27945-3 0  9996,2 53920  53.2169  26.4084 0001331  92.9253 267.1892 15.08837098 92127,6917.889,95.438,540.675,538.833,0.0
53920.0,STARLINK-5025,PAYLOAD,2024-05-21 22:02:13,15.08842329,0.000137,53.2171,22.5426,92.5812,267.5337,5.7268e-05,6.24e-06,0.0,0 STARLINK-5025,1 53920U 22119AL  24142.91821018  .00000624  00000-0  57268-4 0  9991,2 53920  53.2171  22.5426 0001370  92.5812 267.5337 15.08842329 92678,6917.873,95.437,540.686,538.791,0.0
53920.0,STARLINK-5025,PAYLOAD,2024-05-22 01:12:59,15.08847875,0.0001442,53.218,21.9482,94.2988,265.8169,0.00013209,1.815e-05,0.0,0 STARLINK-5025,1 53920U 22119AL  24143.05068713  .00001815  00000-0  13209-3 0  9991,2 53920  53.2180  21.9482 0001442  94.2988 265.8169 15.08847875 92693,6917.856,95.437,540.719,538.724,0.0
53920.0,STARLINK-5025,PAYLOAD,2024-05-22 20:17:37,15.08845239,0.0001593,53.2185,18.3811,86.2937,273.8237,0.00013893,1.924e-05,0.0,0 STARLINK-5025,1 53920U 22119AL  24143.84556760  .00001924  00000-0  13893-3 0  9992,2 53920  53.2185  18.3811 0001593  86.2937 273.8237 15.08845239 92390,6917.864,95.437,540.831,538.627,0.0
53920.0,STARLINK-5025,PAYLOAD,2024-05-22 21:53:00,15.08844219,0.0001523,53.2186,18.0838,90.4505,269.6662,0.00011922,1.61e-05,0.0,0 STARLINK-5025,1 53920U 22119AL  24143.91180769  .00001610  00000-0  11922-3 0  9995,2 53920  53.2186  18.0838 0001523  90.4505 269.6662 15.08844219 92828,6917.867,95.437,540.786,538.679,0.0
53920.0,STARLINK-5025,PAYLOAD,2024-05-23 01:03:46,15.08843031,0.0001461,53.2189,17.4888,89.488,270.6279,0.00010724,1.419e-05,0.0,0 STARLINK-5025,1 53920U 22119AL  24144.04428878  .00001419  00000-0  10724-3 0  9992,2 53920  53.2189  17.4888 0001461  89.4880 270.6279 15.08843031 92843,6917.871,95.437,540.747,538.725,0.0
53920.0,STARLINK-5025,PAYLOAD,2024-05-23 20:08:24,15.08845297,0.000145,53.2192,13.9195,84.6755,275.4402,2.1823e-05,5.9e-07,0.0,0 STARLINK-5025,1 53920U 22119AL  24144.83916843  .00000059  00000-0  21823-4 0  9995,2 53920  53.2192  13.9195 0001450  84.6755 275.4402 15.08845297 92965,6917.864,95.437,540.732,538.726,0.0
53920.0,STARLINK-5025,PAYLOAD,2024-05-23 21:43:47,15.08846063,0.0001494,53.2192,13.6221,81.9371,278.1791,2.3882e-05,9.2e-07,0.0,0 STARLINK-5025,1 53920U 22119AL  24144.90540748  .00000092  00000-0  23882-4 0  9994,2 53920  53.2192  13.6221 0001494  81.9371 278.1791 15.08846063 92552,6917.862,95.437,540.76,538.693,0.0
53920.0,STARLINK-5025,PAYLOAD,2024-05-24 21:34:34,15.08838033,0.0001192,53.2189,9.1654,109.3212,250.7909,-3.026e-05,-7.69e-06,0.0,0 STARLINK-5025,1 53920U 22119AL  24145.89901164 -.00000769  00000-0 -30260-4 0  9997,2 53920  53.2189   9.1654 0001192 109.3212 250.7909 15.08838033 92704,6917.886,95.438,540.576,538.927,0.0
53920.0,STARLINK-5025,PAYLOAD,2024-05-26 00:36:10,15.08808919,0.000168,53.2183,4.1216,48.6238,311.4899,-0.00020563,-3.556e-05,0.0,0 STARLINK-5025,1 53920U 22119AL  24147.02512106 -.00003556  00000-0 -20563-3 0  9999,2 53920  53.2183   4.1216 0001680  48.6238 311.4899 15.08808919 92873,6917.975,95.44,541.003,538.678,0.0
53920.0,STARLINK-5025,PAYLOAD,2024-05-26 14:54:37,15.08820961,0.0001358,53.2184,1.4453,19.9816,340.1229,0.00010565,1.393e-05,0.0,0 STARLINK-5025,1 53920U 22119AL  24147.62126583  .00001393  00000-0  10565-3 0  9991,2 53920  53.2184   1.4453 0001358  19.9816 340.1229 15.08820961 93386,6917.939,95.439,540.743,538.864,0.0
53920.0,STARLINK-5025,PAYLOAD,2024-05-26 21:16:10,15.0881524,0.0001297,53.2192,0.2575,86.4003,273.7138,4.4841e-05,4.25e-06,0.0,0 STARLINK-5025,1 53920U 22119AL  24147.88623195  .00000425  00000-0  44841-4 0  9990,2 53920  53.2192   0.2575 0001297  86.4003 273.7138 15.08815240 93009,6917.956,95.439,540.718,538.924,0.0
53920.0,STARLINK-5025,PAYLOAD,2024-05-27 13:10:00,15.08839489,0.0001135,53.2175,357.2717,87.2449,272.8673,0.00010212,1.338e-05,0.0,0 STARLINK-5025,1 53920U 22119AL  24148.54861285  .00001338  00000-0  10212-3 0  9996,2 53920  53.2175 357.2717 0001135  87.2449 272.8673 15.08839489 93103,6917.882,95.438,540.532,538.962,0.0
53920.0,STARLINK-5025,PAYLOAD,2024-05-27 21:06:56,15.08837855,0.000115,53.2179,355.7838,87.4398,272.6726,8.4573e-05,1.058e-05,0.0,0 STARLINK-5025,1 53920U 22119AL  24148.87981500  .00001058  00000-0  84573-4 0  9996,2 53920  53.2179 355.7838 0001150  87.4398 272.6726 15.08837855 93579,6917.887,95.438,540.548,538.956,0.0
53920.0,STARLINK-5025,PAYLOAD,2024-05-28 06:39:14,15.08839545,0.0001218,53.2184,354.0,82.434,277.679,7.4394e-05,8.96e-06,0.0,0 STARLINK-5025,1 53920U 22119AL  24149.27725490  .00000896  00000-0  74394-4 0  9994,2 53920  53.2184 354.0000 0001218  82.4340 277.6790 15.08839545 93636,6917.882,95.438,540.589,538.904,0.0
53920.0,STARLINK-5025,PAYLOAD,2024-05-28 19:22:19,15.08840947,0.0001216,53.2183,351.6204,92.6546,267.4586,2.959e-05,1.83e-06,0.0,0 STARLINK-5025,1 53920U 22119AL  24149.80717476  .00000183  00000-0  29590-4 0  9995,2 53920  53.2183 351.6204 0001216  92.6546 267.4586 15.08840947 93293,6917.877,95.437,540.584,538.901,0.0
53920.0,STARLINK-5025,PAYLOAD,2024-05-28 20:57:43,15.08841084,0.0001203,53.2182,351.3231,86.5012,273.6117,3.1788e-05,2.18e-06,0.0,0 STARLINK-5025,1 53920U 22119AL  24149.87341472  .00000218  00000-0  31788-4 0  9992,2 53920  53.2182 351.3231 0001203  86.5012 273.6117 15.08841084 93725,6917.877,95.437,540.574,538.91,0.0
53920.0,STARLINK-5025,PAYLOAD,2024-05-29 12:51:34,15.088404,0.0001199,53.2184,348.3502,93.2012,266.9117,5.0011e-05,5.08e-06,0.0,0 STARLINK-5025,1 53920U 22119AL  24150.53581362  .00000508  00000-0  50011-4 0  9993,2 53920  53.2184 348.3502 0001199  93.2012 266.9117 15.08840400 93820,6917.879,95.438,540.574,538.915,0.0
53920.0,STARLINK-5025,PAYLOAD,2024-05-29 19:13:06,15.08841013,0.0001215,53.2184,347.1605,90.9425,269.1706,4.979e-05,5.05e-06,0.0,0 STARLINK-5025,1 53920U 22119AL  24150.80077328  .00000505  00000-0  49790-4 0  9994,2 53920  53.2184 347.1605 0001215  90.9425 269.1706 15.08841013 93866,6917.877,95.437,540.583,538.902,0.0
53920.0,STARLINK-5025,PAYLOAD,2024-05-30 12:42:21,15.08842405,0.0001185,53.2181,343.8897,90.4782,269.6346,4.8457e-05,4.83e-06,0.0,0 STARLINK-5025,1 53920U 22119AL  24151.52941291  .00000483  00000-0  48457-4 0  9997,2 53920  53.2181 343.8897 0001185  90.4782 269.6346 15.08842405 93553,6917.873,95.437,540.558,538.918,0.0
53920.0,STARLINK-5025,PAYLOAD,2024-05-30 19:03:53,15.0884479,0.0001166,53.2177,342.7003,90.9244,269.1881,6.4983e-05,7.47e-06,0.0,0 STARLINK-5025,1 53920U 22119AL  24151.79437028  .00000747  00000-0  64983-4 0  9999,2 53920  53.2177 342.7003 0001166  90.9244 269.1881 15.08844790 94012,6917.866,95.437,540.537,538.924,0.0
53920.0,STARLINK-5025,PAYLOAD,2024-05-31 18:54:40,15.08837735,0.0001376,53.2187,338.2397,96.4245,263.6904,9.4354e-05,1.214e-05,0.0,0 STARLINK-5025,1 53920U 22119AL  24152.78797010  .00001214  00000-0  94354-4 0  9994,2 53920  53.2187 338.2397 0001376  96.4245 263.6904 15.08837735 93749,6917.887,95.438,540.704,538.8,0.0
53920.0,STARLINK-5025,PAYLOAD,2024-05-31 22:05:26,15.08843465,0.0001467,53.2194,337.6437,99.992,260.1238,1.6068e-05,-3.2e-07,0.0,0 STARLINK-5025,1 53920U 22119AL  24152.92044827 -.00000032  00000-0  16068-4 0  9995,2 53920  53.2194 337.6437 0001467  99.9920 260.1238 15.08843465 94182,6917.87,95.437,540.75,538.72,0.0
53920.0,STARLINK-5025,PAYLOAD,2024-06-01 18:45:28,15.08832905,0.0001353,53.217,333.779,93.7089,266.4058,-1.1563e-05,-4.72e-06,0.0,0 STARLINK-5025,1 53920U 22119AL  24153.78157584 -.00000472  00000-0 -11563-4 0  9999,2 53920  53.2170 333.7790 0001353  93.7089 266.4058 15.08832905 93890,6917.902,95.438,540.703,538.831,0.0
53920.0,STARLINK-5025,PAYLOAD,2024-06-02 12:14:42,15.08832505,0.0001304,53.2178,330.5076,91.6731,268.4411,1.383e-05,-6.8e-07,0.0,0 STARLINK-5025,1 53920U 22119AL  24154.51021689 -.00000068  00000-0  13830-4 0  9996,2 53920  53.2178 330.5076 0001304  91.6731 268.4411 15.08832505 94428,6917.903,95.438,540.67,538.866,0.0
53920.0,STARLINK-5025,PAYLOAD,2024-06-03 04:08:33,15.08840975,0.0001259,53.2176,327.5336,89.2532,270.8605,5.1659e-05,5.34e-06,0.0,0 STARLINK-5025,1 53920U 22119AL  24155.17261205  .00000534  00000-0  51659-4 0  9997,2 53920  53.2176 327.5336 0001259  89.2532 270.8605 15.08840975 94109,6917.877,95.437,540.613,538.871,0.0
53920.0,STARLINK-5025,PAYLOAD,2024-06-03 12:05:29,15.08833848,0.0001562,53.2176,326.0481,84.8997,275.2173,8.6066e-05,1.082e-05,0.0,0 STARLINK-5025,1 53920U 22119AL  24155.50381763  .00001082  00000-0  86066-4 0  9995,2 53920  53.2176 326.0481 0001562  84.8997 275.2173 15.08833848 94578,6917.899,95.438,540.845,538.684,0.0
53920.0,STARLINK-5025,PAYLOAD,2024-06-03 18:27:03,15.08818175,0.000122,53.2174,324.8572,85.1876,274.9256,-4.3391e-05,-9.78e-06,0.0,0 STARLINK-5025,1 53920U 22119AL  24155.76879342 -.00000978  00000-0 -43391-4 0  9997,2 53920  53.2174 324.8572 0001220  85.1876 274.9256 15.08818175 94196,6917.947,95.439,540.656,538.968,0.0
53920.0,STARLINK-5025,PAYLOAD,2024-06-03 21:37:50,15.08816011,0.0001174,53.2166,324.264,87.1608,272.9519,-6.8164e-05,-1.372e-05,0.0,0 STARLINK-5025,1 53920U 22119AL  24155.90127702 -.00001372  00000-0 -68164-4 0  9993,2 53920  53.2166 324.2640 0001174  87.1608 272.9519 15.08816011 94636,6917.954,95.439,540.631,539.007,0.0
53920.0,STARLINK-5025,PAYLOAD,2024-06-04 03:59:22,15.08821317,0.0001108,53.2185,323.0745,85.4787,274.6332,-4.3021e-05,-9.72e-06,0.0,0 STARLINK-5025,1 53920U 22119AL  24156.16623624 -.00000972  00000-0 -43021-4 0  9996,2 53920  53.2185 323.0745 0001108  85.4787 274.6332 15.08821317 94677,6917.937,95.439,540.569,539.036,0.0
